{
  "type": "FeatureCollection",
  "features": [
    {
      "type": "Feature",
      "properties": {
        "norad_id": 31225,
        "name": "FENGYUN 1C DEB",
        "group": "fengyun-1c-debris",
        "lat": -14.753890263065518,
        "lon": -123.38371158818201,
        "alt_km": 896.6320412865489,
        "timestamp": "2025-12-11T18:59:46.354710+00:00",
        "meta_object_name": "FENGYUN 1C DEB",
        "meta_object_id": "1999-025BLF",
        "meta_epoch": "2025-12-11T04:39:31.306176",
        "meta_mean_motion": 14.17845025,
        "meta_eccentricity": 0.00881149,
        "meta_inclination": 98.9892,
        "meta_ra_of_asc_node": 58.4009,
        "meta_arg_of_pericenter": 355.858,
        "meta_mean_anomaly": 31.7664,
        "meta_ephemeris_type": 0,
        "meta_classification_type": "U",
        "meta_norad_cat_id": 31225,
        "meta_element_set_no": 999,
        "meta_rev_at_epoch": 95800,
        "meta_bstar": 0.00181446,
        "meta_mean_motion_dot": 3.805e-05,
        "meta_mean_motion_ddot": 0,
        "tle_line1": "1 31225U 99025BLF 25345.19411234  .00003805  00000+0  18145-2 0  9998",
        "tle_line2": "2 31225  98.9892  58.4009 0088114 355.8580  31.7664 14.17845025958008"
      },
      "geometry": {
        "type": "Point",
        "coordinates": [
          -123.38371158818201,
          -14.753890263065518
        ]
      }
    },
    {
      "type": "Feature",
      "properties": {
        "norad_id": 31226,
        "name": "FENGYUN 1C DEB",
        "group": "fengyun-1c-debris",
        "lat": -30.90088479162701,
        "lon": -9.305625715808356,
        "alt_km": 866.4422802541067,
        "timestamp": "2025-12-11T18:59:46.354722+00:00",
        "meta_object_name": "FENGYUN 1C DEB",
        "meta_object_id": "1999-025BLG",
        "meta_epoch": "2025-12-06T17:57:16.149312",
        "meta_mean_motion": 14.2667576,
        "meta_eccentricity": 0.01264653,
        "meta_inclination": 98.3501,
        "meta_ra_of_asc_node": 340.838,
        "meta_arg_of_pericenter": 213.6965,
        "meta_mean_anomaly": 145.613,
        "meta_ephemeris_type": 0,
        "meta_classification_type": "U",
        "meta_norad_cat_id": 31226,
        "meta_element_set_no": 999,
        "meta_rev_at_epoch": 61968,
        "meta_bstar": 0.00066349543,
        "meta_mean_motion_dot": 1.704e-05,
        "meta_mean_motion_ddot": 0,
        "tle_line1": "1 31226U 99025BLG 25340.74810358  .00001704  00000+0  66350-3 0  9993",
        "tle_line2": "2 31226  98.3501 340.8380 0126465 213.6965 145.6130 14.26675760619688"
      },
      "geometry": {
        "type": "Point",
        "coordinates": [
          -9.305625715808356,
          -30.90088479162701
        ]
      }
    },
    {
      "type": "Feature",
      "properties": {
        "norad_id": 31228,
        "name": "FENGYUN 1C DEB",
        "group": "fengyun-1c-debris",
        "lat": -72.70450370518466,
        "lon": -72.3256062987783,
        "alt_km": 830.3308703300663,
        "timestamp": "2025-12-11T18:59:46.354732+00:00",
        "meta_object_name": "FENGYUN 1C DEB",
        "meta_object_id": "1999-025BLJ",
        "meta_epoch": "2025-12-10T12:25:31.694880",
        "meta_mean_motion": 14.36908803,
        "meta_eccentricity": 0.00792467,
        "meta_inclination": 98.8685,
        "meta_ra_of_asc_node": 256.268,
        "meta_arg_of_pericenter": 92.4416,
        "meta_mean_anomaly": 87.3886,
        "meta_ephemeris_type": 0,
        "meta_classification_type": "U",
        "meta_norad_cat_id": 31228,
        "meta_element_set_no": 999,
        "meta_rev_at_epoch": 97537,
        "meta_bstar": 0.00078673074,
        "meta_mean_motion_dot": 2.367e-05,
        "meta_mean_motion_ddot": 0,
        "tle_line1": "1 31228U 99025BLJ 25344.51772795  .00002367  00000+0  78673-3 0  9993",
        "tle_line2": "2 31228  98.8685 256.2680 0079246  92.4416  87.3886 14.36908803975378"
      },
      "geometry": {
        "type": "Point",
        "coordinates": [
          -72.3256062987783,
          -72.70450370518466
        ]
      }
    },
    {
      "type": "Feature",
      "properties": {
        "norad_id": 31229,
        "name": "FENGYUN 1C DEB",
        "group": "fengyun-1c-debris",
        "lat": 46.059370624179216,
        "lon": -109.58126741269554,
        "alt_km": 852.1590521165035,
        "timestamp": "2025-12-11T18:59:46.354745+00:00",
        "meta_object_name": "FENGYUN 1C DEB",
        "meta_object_id": "1999-025BLK",
        "meta_epoch": "2025-12-10T15:20:45.373056",
        "meta_mean_motion": 14.21797924,
        "meta_eccentricity": 0.0052864,
        "meta_inclination": 98.8673,
        "meta_ra_of_asc_node": 59.9386,
        "meta_arg_of_pericenter": 302.8603,
        "meta_mean_anomaly": 56.7492,
        "meta_ephemeris_type": 0,
        "meta_classification_type": "U",
        "meta_norad_cat_id": 31229,
        "meta_element_set_no": 999,
        "meta_rev_at_epoch": 96054,
        "meta_bstar": 0.0021293,
        "meta_mean_motion_dot": 4.711e-05,
        "meta_mean_motion_ddot": 0,
        "tle_line1": "1 31229U 99025BLK 25344.63941404  .00004711  00000+0  21293-2 0  9992",
        "tle_line2": "2 31229  98.8673  59.9386 0052864 302.8603  56.7492 14.21797924960540"
      },
      "geometry": {
        "type": "Point",
        "coordinates": [
          -109.58126741269554,
          46.059370624179216
        ]
      }
    },
    {
      "type": "Feature",
      "properties": {
        "norad_id": 31231,
        "name": "FENGYUN 1C DEB",
        "group": "fengyun-1c-debris",
        "lat": -35.77759869961509,
        "lon": 151.29743836967262,
        "alt_km": 733.9208695465295,
        "timestamp": "2025-12-11T18:59:46.354757+00:00",
        "meta_object_name": "FENGYUN 1C DEB",
        "meta_object_id": "1999-025BLM",
        "meta_epoch": "2025-12-10T17:07:20.657856",
        "meta_mean_motion": 14.75448161,
        "meta_eccentricity": 0.01463394,
        "meta_inclination": 98.8622,
        "meta_ra_of_asc_node": 143.661,
        "meta_arg_of_pericenter": 112.7421,
        "meta_mean_anomaly": 248.9327,
        "meta_ephemeris_type": 0,
        "meta_classification_type": "U",
        "meta_norad_cat_id": 31231,
        "meta_element_set_no": 999,
        "meta_rev_at_epoch": 62991,
        "meta_bstar": 0.0049834558,
        "meta_mean_motion_dot": 0.00040479,
        "meta_mean_motion_ddot": 0,
        "tle_line1": "1 31231U 99025BLM 25344.71343354  .00040479  00000+0  49835-2 0  9997",
        "tle_line2": "2 31231  98.8622 143.6610 0146339 112.7421 248.9327 14.75448161629915"
      },
      "geometry": {
        "type": "Point",
        "coordinates": [
          151.29743836967262,
          -35.77759869961509
        ]
      }
    },
    {
      "type": "Feature",
      "properties": {
        "norad_id": 31234,
        "name": "FENGYUN 1C DEB",
        "group": "fengyun-1c-debris",
        "lat": 34.590013668451604,
        "lon": 165.94137247818637,
        "alt_km": 858.6856807330023,
        "timestamp": "2025-12-11T18:59:46.354778+00:00",
        "meta_object_name": "FENGYUN 1C DEB",
        "meta_object_id": "1999-025BLQ",
        "meta_epoch": "2025-12-08T16:58:03.836640",
        "meta_mean_motion": 14.08010887,
        "meta_eccentricity": 0.00729408,
        "meta_inclination": 98.7836,
        "meta_ra_of_asc_node": 336.8196,
        "meta_arg_of_pericenter": 238.3597,
        "meta_mean_anomaly": 121.0443,
        "meta_ephemeris_type": 0,
        "meta_classification_type": "U",
        "meta_norad_cat_id": 31234,
        "meta_element_set_no": 999,
        "meta_rev_at_epoch": 72663,
        "meta_bstar": 0.00057434574,
        "meta_mean_motion_dot": 9.57e-06,
        "meta_mean_motion_ddot": 0,
        "tle_line1": "1 31234U 99025BLQ 25342.70698885  .00000957  00000+0  57435-3 0  9992",
        "tle_line2": "2 31234  98.7836 336.8196 0072940 238.3597 121.0443 14.08010887726637"
      },
      "geometry": {
        "type": "Point",
        "coordinates": [
          165.94137247818637,
          34.590013668451604
        ]
      }
    },
    {
      "type": "Feature",
      "properties": {
        "norad_id": 31235,
        "name": "FENGYUN 1C DEB",
        "group": "fengyun-1c-debris",
        "lat": 80.05288865041882,
        "lon": 12.25730478444872,
        "alt_km": 776.9498331534069,
        "timestamp": "2025-12-11T18:59:46.354789+00:00",
        "meta_object_name": "FENGYUN 1C DEB",
        "meta_object_id": "1999-025BLR",
        "meta_epoch": "2025-12-10T15:28:40.631808",
        "meta_mean_motion": 14.18570013,
        "meta_eccentricity": 0.0179703,
        "meta_inclination": 98.4683,
        "meta_ra_of_asc_node": 133.0053,
        "meta_arg_of_pericenter": 28.2591,
        "meta_mean_anomaly": 332.8195,
        "meta_ephemeris_type": 0,
        "meta_classification_type": "U",
        "meta_norad_cat_id": 31235,
        "meta_element_set_no": 999,
        "meta_rev_at_epoch": 63137,
        "meta_bstar": 0.0039892,
        "meta_mean_motion_dot": 9.663e-05,
        "meta_mean_motion_ddot": 0,
        "tle_line1": "1 31235U 99025BLR 25344.64491472  .00009663  00000+0  39892-2 0  9990",
        "tle_line2": "2 31235  98.4683 133.0053 0179703  28.2591 332.8195 14.18570013631374"
      },
      "geometry": {
        "type": "Point",
        "coordinates": [
          12.25730478444872,
          80.05288865041882
        ]
      }
    }
  ]
}